{"type": "FeatureCollection", "features": [ {"type": "Feature", "properties": {"norad_id": 31772, "name": "FENGYUN 1C DEB", "group": "fengyun-1c-debris", "lat": 5.168790717268553, "lon": 79.48399669129637, "alt_km": 784.8944495983123, "timestamp": "2025-12-06T22:38:43.012189+00:00", "meta": {"OBJECT_NAME": "FENGYUN 1C DEB", "OBJECT_ID": "1999-025CFX", "EPOCH": "2025-12-02T05:33:26.479008", "MEAN_MOTION": 14.11635308, "ECCENTRICITY": 0.0135819, "INCLINATION": 98.4716, "RA_OF_ASC_NODE": 254.2606, "ARG_OF_PERICENTER": 143.9036, "MEAN_ANOMALY": 217.1401, "EPHEMERIS_TYPE": 0, "CLASSIFICATION_TYPE": "U", "NORAD_CAT_ID": 31772, "ELEMENT_SET_NO": 999, "REV_AT_EPOCH": 70735, "BSTAR": 0.0011634, "MEAN_MOTION_DOT": 2.268e-05, "MEAN_MOTION_DDOT": 0}, "tle": {"line1": "1 31772U 99025CFX 25336.23155647  .00002268  00000+0  11634-2 0  9991", "line2": "2 31772  98.4716 254.2606 0135819 143.9036 217.1401 14.11635308707355"}}, "geometry": {"type": "Point", "coordinates": [79.48399669129637, 5.168790717268553]}}, {"type": "Feature", "properties": {"norad_id": 31773, "name": "FENGYUN 1C DEB", "group": "fengyun-1c-debris", "lat": 54.73244670481533, "lon": -41.59526599877771, "alt_km": 669.0420857805075, "timestamp": "2025-12-06T22:38:43.012199+00:00", "meta": {"OBJECT_NAME": "FENGYUN 1C DEB", "OBJECT_ID": "1999-025CFY", "EPOCH": "2025-12-01T05:23:44.833344", "MEAN_MOTION": 14.72359777, "ECCENTRICITY": 0.0038605, "INCLINATION": 98.9488, "RA_OF_ASC_NODE": 324.9883, "ARG_OF_PERICENTER": 215.5051, "MEAN_ANOMALY": 144.3583, "EPHEMERIS_TYPE": 0, "CLASSIFICATION_TYPE": "U", "NORAD_CAT_ID": 31773, "ELEMENT_SET_NO": 999, "REV_AT_EPOCH": 65005, "BSTAR": 0.0025423, "MEAN_MOTION_DOT": 0.00016254, "MEAN_MOTION_DDOT": 0}, "tle": {"line1": "1 31773U 99025CFY 25335.22482446  .00016254  00000+0  25423-2 0  9991", "line2": "2 31773  98.9488 324.9883 0038605 215.5051 144.3583 14.72359777650053"}}, "geometry": {"type": "Point", "coordinates": [-41.59526599877771, 54.73244670481533]}}, {"type": "Feature", "properties": {"norad_id": 31776, "name": "FENGYUN 1C DEB", "group": "fengyun-1c-debris", "lat": -0.836049858526006, "lon": -139.577983072492, "alt_km": 872.0975422232405, "timestamp": "2025-12-06T22:38:43.012209+00:00", "meta": {"OBJECT_NAME": "FENGYUN 1C DEB", "OBJECT_ID": "1999-025CGB", "EPOCH": "2025-12-06T15:44:53.565792", "MEAN_MOTION": 14.18501256, "ECCENTRICITY": 0.00543222, "INCLINATION": 99.0751, "RA_OF_ASC_NODE": 40.2618, "ARG_OF_PERICENTER": 352.4924, "MEAN_ANOMALY": 161.6256, "EPHEMERIS_TYPE": 0, "CLASSIFICATION_TYPE": "U", "NORAD_CAT_ID": 31776, "ELEMENT_SET_NO": 999, "REV_AT_EPOCH": 94794, "BSTAR": 0.0023507252, "MEAN_MOTION_DOT": 4.887e-05, "MEAN_MOTION_DDOT": 0}, "tle": {"line1": "1 31776U 99025CGB 25340.65617553  .00004887  00000+0  23507-2 0  9996", "line2": "2 31776  99.0751  40.2618 0054322 352.4924 161.6256 14.18501256947946"}}, "geometry": {"type": "Point", "coordinates": [-139.577983072492, -0.836049858526006]}}, {"type": "Feature", "properties": {"norad_id": 31779, "name": "FENGYUN 1C DEB", "group": "fengyun-1c-debris", "lat": 2.5642189619558104, "lon": -100.02311748890013, "alt_km": 900.6774009903202, "timestamp": "2025-12-06T22:38:43.012219+00:00", "meta": {"OBJECT_NAME": "FENGYUN 1C DEB", "OBJECT_ID": "1999-025CGE", "EPOCH": "2025-12-05T13:18:58.519008", "MEAN_MOTION": 14.41571273, "ECCENTRICITY": 0.02129967, "INCLINATION": 99.2975, "RA_OF_ASC_NODE": 258.8857, "ARG_OF_PERICENTER": 204.0278, "MEAN_ANOMALY": 155.0856, "EPHEMERIS_TYPE": 0, "CLASSIFICATION_TYPE": "U", "NORAD_CAT_ID": 31779, "ELEMENT_SET_NO": 999, "REV_AT_EPOCH": 96906, "BSTAR": 0.00050937089, "MEAN_MOTION_DOT": 2.11e-05, "MEAN_MOTION_DDOT": 0}, "tle": {"line1": "1 31779U 99025CGE 25339.55484397  .00002110  00000+0  50937-3 0  9999", "line2": "2 31779  99.2975 258.8857 0212996 204.0278 155.0856 14.41571273969060"}}, "geometry": {"type": "Point", "coordinates": [-100.02311748890013, 2.5642189619558104]}}, {"type": "Feature", "properties": {"norad_id": 31780, "name": "FENGYUN 1C DEB", "group": "fengyun-1c-debris", "lat": 75.21609283106112, "lon": -8.908329895803845, "alt_km": 563.4891497462067, "timestamp": "2025-12-06T22:38:43.012229+00:00", "meta": {"OBJECT_NAME": "FENGYUN 1C DEB", "OBJECT_ID": "1999-025CGF", "EPOCH": "2025-12-04T16:16:09.846336", "MEAN_MOTION": 14.69489035, "ECCENTRICITY": 0.015109, "INCLINATION": 99.2854, "RA_OF_ASC_NODE": 130.207, "ARG_OF_PERICENTER": 77.85, "MEAN_ANOMALY": 283.9582, "EPHEMERIS_TYPE": 0, "CLASSIFICATION_TYPE": "U", "NORAD_CAT_ID": 31780, "ELEMENT_SET_NO": 999, "REV_AT_EPOCH": 98379, "BSTAR": 0.00062815, "MEAN_MOTION_DOT": 4.368e-05, "MEAN_MOTION_DDOT": 0}, "tle": {"line1": "1 31780U 99025CGF 25338.67789174  .00004368  00000+0  62815-3 0  9999", "line2": "2 31780  99.2854 130.2070 0151090  77.8500 283.9582 14.69489035983796"}}, "geometry": {"type": "Point", "coordinates": [-8.908329895803845, 75.21609283106112]}}, {"type": "Feature", "properties": {"norad_id": 31781, "name": "FENGYUN 1C DEB", "group": "fengyun-1c-debris", "lat": -29.098609302979302, "lon": 156.83321944712102, "alt_km": 742.6547520496579, "timestamp": "2025-12-06T22:38:43.012240+00:00", "meta": {"OBJECT_NAME": "FENGYUN 1C DEB", "OBJECT_ID": "1999-025CGG", "EPOCH": "2025-12-05T17:53:16.013472", "MEAN_MOTION": 14.12811066, "ECCENTRICITY": 0.02036637, "INCLINATION": 99.4972, "RA_OF_ASC_NODE": 150.2166, "ARG_OF_PERICENTER": 293.167, "MEAN_ANOMALY": 64.8161, "EPHEMERIS_TYPE": 0, "CLASSIFICATION_TYPE": "U", "NORAD_CAT_ID": 31781, "ELEMENT_SET_NO": 999, "REV_AT_EPOCH": 68249, "BSTAR": 0.0060418808, "MEAN_MOTION_DOT": 0.00013645, "MEAN_MOTION_DDOT": 0}, "tle": {"line1": "1 31781U 99025CGG 25339.74532423  .00013645  00000+0  60419-2 0  9997", "line2": "2 31781  99.4972 150.2166 0203663 293.1670  64.8161 14.12811066682496"}}, "geometry": {"type": "Point", "coordinates": [156.83321944712102, -29.098609302979302]}}, {"type": "Feature", "properties": {"norad_id": 31782, "name": "FENGYUN 1C DEB", "group": "fengyun-1c-debris", "lat": -55.58495475231243, "lon": 155.16719857370174, "alt_km": 758.7083284302444, "timestamp": "2025-12-06T22:38:43.012250+00:00", "meta": {"OBJECT_NAME": "FENGYUN 1C DEB", "OBJECT_ID": "1999-025CGH", "EPOCH": "2025-12-05T22:31:18.400224", "MEAN_MOTION": 14.36210758, "ECCENTRICITY": 0.00797978, "INCLINATION": 98.904, "RA_OF_ASC_NODE": 140.901, "ARG_OF_PERICENTER": 17.0263, "MEAN_ANOMALY": 133.2697, "EPHEMERIS_TYPE": 0, "CLASSIFICATION_TYPE": "U", "NORAD_CAT_ID": 31782, "ELEMENT_SET_NO": 999, "REV_AT_EPOCH": 96593, "BSTAR": 0.00060247171, "MEAN_MOTION_DOT": 1.775e-05, "MEAN_MOTION_DDOT": 0}, "tle": {"line1": "1 31782U 99025CGH 25339.93840741  .00001775  00000+0  60247-3 0  9995", "line2": "2 31782  98.9040 140.9010 0079797  17.0263 133.2697 14.36210758965936"}}, "geometry": {"type": "Point", "coordinates": [155.16719857370174, -55.58495475231243]}}, {"type": "Feature", "properties": {"norad_id": 31783, "name": "FENGYUN 1C DEB", "group": "fengyun-1c-debris", "lat": 53.04779540269818, "lon": -21.748176104792726, "alt_km": 784.3743763235007, "timestamp": "2025-12-06T22:38:43.012260+00:00", "meta": {"OBJECT_NAME": "FENGYUN 1C DEB", "OBJECT_ID": "1999-025CGJ", "EPOCH": "2025-12-06T07:08:02.355936", "MEAN_MOTION": 14.08810427, "ECCENTRICITY": 0.01045861, "INCLINATION": 98.6049, "RA_OF_ASC_NODE": 349.2471, "ARG_OF_PERICENTER": 68.1166, "MEAN_ANOMALY": 310.0856, "EPHEMERIS_TYPE": 0, "CLASSIFICATION_TYPE": "U", "NORAD_CAT_ID": 31783, "ELEMENT_SET_NO": 999, "REV_AT_EPOCH": 89130, "BSTAR": 0.00093056398, "MEAN_MOTION_DOT": 1.648e-05, "MEAN_MOTION_DDOT": 0}, "tle": {"line1": "1 31783U 99025CGJ 25340.29724949  .00001648  00000+0  93056-3 0  9991", "line2": "2 31783  98.6049 349.2471 0104586  68.1166 310.0856 14.08810427891301"}}, "geometry": {"type": "Point", "coordinates": [-21.748176104792726, 53.04779540269818]}}, {"type": "Feature", "properties": {"norad_id": 31788, "name": "FENGYUN 1C DEB", "group": "fengyun-1c-debris", "lat": -42.82303886714937, "lon": 134.39355590821452, "alt_km": 1370.2115505878937, "timestamp": "2025-12-06T22:38:43.012270+00:00", "meta": {"OBJECT_NAME": "FENGYUN 1C DEB", "OBJECT_ID": "1999-025CGP", "EPOCH": "2025-12-06T08:43:59.240640", "MEAN_MOTION": 13.45043576, "ECCENTRICITY": 0.04637237, "INCLINATION": 102.5581, "RA_OF_ASC_NODE": 121.7474, "ARG_OF_PERICENTER": 100.9085, "MEAN_ANOMALY": 292.672, "EPHEMERIS_TYPE": 0, "CLASSIFICATION_TYPE": "U", "NORAD_CAT_ID": 31788, "ELEMENT_SET_NO": 999, "REV_AT_EPOCH": 90519, "BSTAR": 0.0047416051, "MEAN_MOTION_DOT": 5.291e-05, "MEAN_MOTION_DDOT": 0}, "tle": {"line1": "1 31788U 99025CGP 25340.36388010  .00005291  00000+0  47416-2 0  9995", "line2": "2 31788 102.5581 121.7474 0463723 100.9085 292.6720 13.45043576905195"}}, "geometry": {"type": "Point", "coordinates": [134.39355590821452, -42.82303886714937]}}, {"type": "Feature", "properties": {"norad_id": 31805, "name": "FENGYUN 1C DEB", "group": "fengyun-1c-debris", "lat": 55.54389740579765, "lon": -46.80763975227054, "alt_km": 1024.6346524850796, "timestamp": "2025-12-06T22:38:43.012280+00:00", "meta": {"OBJECT_NAME": "FENGYUN 1C DEB", "OBJECT_ID": "1999-025CGT", "EPOCH": "2025-12-01T05:23:40.108128", "MEAN_MOTION": 14.02670631, "ECCENTRICITY": 0.0447098, "INCLINATION": 98.3662, "RA_OF_ASC_NODE": 320.3008, "ARG_OF_PERICENTER": 191.6465, "MEAN_ANOMALY": 167.4086, "EPHEMERIS_TYPE": 0, "CLASSIFICATION_TYPE": "U", "NORAD_CAT_ID": 31805, "ELEMENT_SET_NO": 999, "REV_AT_EPOCH": 62202, "BSTAR": 0.0013339, "MEAN_MOTION_DOT": 4.977e-05, "MEAN_MOTION_DDOT": 0}, "tle": {"line1": "1 31805U 99025CGT 25335.22476977  .00004977  00000+0  13339-2 0  9991", "line2": "2 31805  98.3662 320.3008 0447098 191.6465 167.4086 14.02670631622027"}}, "geometry": {"type": "Point", "coordinates": [-46.80763975227054, 55.54389740579765]}}]}